[
    {
        "Altitude(m)": 622200.1381285663,
        "Argument of Periapsis(deg)": 0.0,
        "Eccentricity": 0.0,
        "Inclination(deg)": 60.0,
        "Latitude(deg)": -52.16262358771188,
        "Longitude(deg)": -132.63934349052374,
        "Mean Anomaly(deg)": 294.5455,
        "RAAN(deg)": 15.0,
        "Satellite Name": "Test1 84",
        "Satellite Number": 84,
        "Semi-Major Axis(m)": 6980739.136638005,
        "Time(s)": 0
    },
    {
        "Altitude(m)": 622058.3063374149,
        "Argument of Periapsis(deg)": 0.00010418945913296404,
        "Eccentricity": 0.0,
        "Inclination(deg)": 60.0,
        "Latitude(deg)": -51.7993742441542,
        "Longitude(deg)": -131.87128290452105,
        "Mean Anomaly(deg)": 295.1656061454619,
        "RAAN(deg)": 14.999579950860259,
        "Satellite Name": "Test1 84",
        "Satellite Number": 84,
        "Semi-Major Axis(m)": 6980739.136638005,
        "Time(s)": 10
    }
]